<?xml version="1.0" encoding="UTF-8"?>
<ndm xmlns:xsi="http://www.w3.org/2001/XMLSchema-instance" xsi:noNamespaceSchemaLocation="https://sanaregistry.org/r/ndmxml_unqualified/ndmxml-2.0.0-master-2.0.xsd">
<omm id="CCSDS_OMM_VERS" version="2.0">
<header><CREATION_DATE/><ORIGINATOR/></header><body><segment><metadata><OBJECT_NAME>ORBCOMM FM05</OBJECT_NAME><OBJECT_ID>1997-084F</OBJECT_ID><CENTER_NAME>EARTH</CENTER_NAME><REF_FRAME>TEME</REF_FRAME><TIME_SYSTEM>UTC</TIME_SYSTEM><MEAN_ELEMENT_THEORY>SGP4</MEAN_ELEMENT_THEORY></metadata><data><meanElements><EPOCH>2025-04-18T20:43:03.795168</EPOCH><MEAN_MOTION>14.45707135</MEAN_MOTION><ECCENTRICITY>.0001934</ECCENTRICITY><INCLINATION>45.0145</INCLINATION><RA_OF_ASC_NODE>292.8496</RA_OF_ASC_NODE><ARG_OF_PERICENTER>253.2379</ARG_OF_PERICENTER><MEAN_ANOMALY>106.8261</MEAN_ANOMALY></meanElements><tleParameters><EPHEMERIS_TYPE>0</EPHEMERIS_TYPE><CLASSIFICATION_TYPE>U</CLASSIFICATION_TYPE><NORAD_CAT_ID>25117</NORAD_CAT_ID><ELEMENT_SET_NO>999</ELEMENT_SET_NO><REV_AT_EPOCH>43296</REV_AT_EPOCH><BSTAR>.75356E-3</BSTAR><MEAN_MOTION_DOT>.255E-4</MEAN_MOTION_DOT><MEAN_MOTION_DDOT>0</MEAN_MOTION_DDOT></tleParameters></data></segment></body></omm>
<omm id="CCSDS_OMM_VERS" version="2.0">
<header><CREATION_DATE/><ORIGINATOR/></header><body><segment><metadata><OBJECT_NAME>ORBCOMM FM06</OBJECT_NAME><OBJECT_ID>1997-084G</OBJECT_ID><CENTER_NAME>EARTH</CENTER_NAME><REF_FRAME>TEME</REF_FRAME><TIME_SYSTEM>UTC</TIME_SYSTEM><MEAN_ELEMENT_THEORY>SGP4</MEAN_ELEMENT_THEORY></metadata><data><meanElements><EPOCH>2025-04-18T21:18:01.672704</EPOCH><MEAN_MOTION>14.45846583</MEAN_MOTION><ECCENTRICITY>.0001027</ECCENTRICITY><INCLINATION>45.0138</INCLINATION><RA_OF_ASC_NODE>292.5353</RA_OF_ASC_NODE><ARG_OF_PERICENTER>234.7459</ARG_OF_PERICENTER><MEAN_ANOMALY>265.6866</MEAN_ANOMALY></meanElements><tleParameters><EPHEMERIS_TYPE>0</EPHEMERIS_TYPE><CLASSIFICATION_TYPE>U</CLASSIFICATION_TYPE><NORAD_CAT_ID>25118</NORAD_CAT_ID><ELEMENT_SET_NO>999</ELEMENT_SET_NO><REV_AT_EPOCH>43296</REV_AT_EPOCH><BSTAR>.74073E-3</BSTAR><MEAN_MOTION_DOT>.2511E-4</MEAN_MOTION_DOT><MEAN_MOTION_DDOT>0</MEAN_MOTION_DDOT></tleParameters></data></segment></body></omm>
<omm id="CCSDS_OMM_VERS" version="2.0">
<header><CREATION_DATE/><ORIGINATOR/></header><body><segment><metadata><OBJECT_NAME>ORBCOMM FM07</OBJECT_NAME><OBJECT_ID>1997-084H</OBJECT_ID><CENTER_NAME>EARTH</CENTER_NAME><REF_FRAME>TEME</REF_FRAME><TIME_SYSTEM>UTC</TIME_SYSTEM><MEAN_ELEMENT_THEORY>SGP4</MEAN_ELEMENT_THEORY></metadata><data><meanElements><EPOCH>2025-04-18T20:58:03.201888</EPOCH><MEAN_MOTION>14.45823908</MEAN_MOTION><ECCENTRICITY>.0002751</ECCENTRICITY><INCLINATION>45.0134</INCLINATION><RA_OF_ASC_NODE>293.3693</RA_OF_ASC_NODE><ARG_OF_PERICENTER>252.7238</ARG_OF_PERICENTER><MEAN_ANOMALY>107.3313</MEAN_ANOMALY></meanElements><tleParameters><EPHEMERIS_TYPE>0</EPHEMERIS_TYPE><CLASSIFICATION_TYPE>U</CLASSIFICATION_TYPE><NORAD_CAT_ID>25119</NORAD_CAT_ID><ELEMENT_SET_NO>999</ELEMENT_SET_NO><REV_AT_EPOCH>43295</REV_AT_EPOCH><BSTAR>.74856E-3</BSTAR><MEAN_MOTION_DOT>.2538E-4</MEAN_MOTION_DOT><MEAN_MOTION_DDOT>0</MEAN_MOTION_DDOT></tleParameters></data></segment></body></omm>
<omm id="CCSDS_OMM_VERS" version="2.0">
<header><CREATION_DATE/><ORIGINATOR/></header><body><segment><metadata><OBJECT_NAME>ORBCOMM FM03</OBJECT_NAME><OBJECT_ID>1998-007B</OBJECT_ID><CENTER_NAME>EARTH</CENTER_NAME><REF_FRAME>TEME</REF_FRAME><TIME_SYSTEM>UTC</TIME_SYSTEM><MEAN_ELEMENT_THEORY>SGP4</MEAN_ELEMENT_THEORY></metadata><data><meanElements><EPOCH>2025-04-19T04:42:56.973600</EPOCH><MEAN_MOTION>14.34327321</MEAN_MOTION><ECCENTRICITY>.0046095</ECCENTRICITY><INCLINATION>107.9643</INCLINATION><RA_OF_ASC_NODE>14.4399</RA_OF_ASC_NODE><ARG_OF_PERICENTER>350.3919</ARG_OF_PERICENTER><MEAN_ANOMALY>9.6335</MEAN_ANOMALY></meanElements><tleParameters><EPHEMERIS_TYPE>0</EPHEMERIS_TYPE><CLASSIFICATION_TYPE>U</CLASSIFICATION_TYPE><NORAD_CAT_ID>25158</NORAD_CAT_ID><ELEMENT_SET_NO>999</ELEMENT_SET_NO><REV_AT_EPOCH>41572</REV_AT_EPOCH><BSTAR>.75897E-3</BSTAR><MEAN_MOTION_DOT>.203E-4</MEAN_MOTION_DOT><MEAN_MOTION_DDOT>0</MEAN_MOTION_DDOT></tleParameters></data></segment></body></omm>
<omm id="CCSDS_OMM_VERS" version="2.0">
<header><CREATION_DATE/><ORIGINATOR/></header><body><segment><metadata><OBJECT_NAME>ORBCOMM FM04</OBJECT_NAME><OBJECT_ID>1998-007C</OBJECT_ID><CENTER_NAME>EARTH</CENTER_NAME><REF_FRAME>TEME</REF_FRAME><TIME_SYSTEM>UTC</TIME_SYSTEM><MEAN_ELEMENT_THEORY>SGP4</MEAN_ELEMENT_THEORY></metadata><data><meanElements><EPOCH>2025-04-18T11:50:58.701408</EPOCH><MEAN_MOTION>14.34579669</MEAN_MOTION><ECCENTRICITY>.0041899</ECCENTRICITY><INCLINATION>107.9628</INCLINATION><RA_OF_ASC_NODE>16.1766</RA_OF_ASC_NODE><ARG_OF_PERICENTER>348.9308</ARG_OF_PERICENTER><MEAN_ANOMALY>11.0906</MEAN_ANOMALY></meanElements><tleParameters><EPHEMERIS_TYPE>0</EPHEMERIS_TYPE><CLASSIFICATION_TYPE>U</CLASSIFICATION_TYPE><NORAD_CAT_ID>25159</NORAD_CAT_ID><ELEMENT_SET_NO>999</ELEMENT_SET_NO><REV_AT_EPOCH>41577</REV_AT_EPOCH><BSTAR>.72488E-3</BSTAR><MEAN_MOTION_DOT>.1939E-4</MEAN_MOTION_DOT><MEAN_MOTION_DDOT>0</MEAN_MOTION_DDOT></tleParameters></data></segment></body></omm>
<omm id="CCSDS_OMM_VERS" version="2.0">
<header><CREATION_DATE/><ORIGINATOR/></header><body><segment><metadata><OBJECT_NAME>ORBCOMM FM17</OBJECT_NAME><OBJECT_ID>1998-046A</OBJECT_ID><CENTER_NAME>EARTH</CENTER_NAME><REF_FRAME>TEME</REF_FRAME><TIME_SYSTEM>UTC</TIME_SYSTEM><MEAN_ELEMENT_THEORY>SGP4</MEAN_ELEMENT_THEORY></metadata><data><meanElements><EPOCH>2025-04-19T05:22:33.363264</EPOCH><MEAN_MOTION>14.34965436</MEAN_MOTION><ECCENTRICITY>.000463</ECCENTRICITY><INCLINATION>44.9934</INCLINATION><RA_OF_ASC_NODE>175.8574</RA_OF_ASC_NODE><ARG_OF_PERICENTER>263.1464</ARG_OF_PERICENTER><MEAN_ANOMALY>96.8856</MEAN_ANOMALY></meanElements><tleParameters><EPHEMERIS_TYPE>0</EPHEMERIS_TYPE><CLASSIFICATION_TYPE>U</CLASSIFICATION_TYPE><NORAD_CAT_ID>25413</NORAD_CAT_ID><ELEMENT_SET_NO>999</ELEMENT_SET_NO><REV_AT_EPOCH>39487</REV_AT_EPOCH><BSTAR>.50829E-3</BSTAR><MEAN_MOTION_DOT>.1319E-4</MEAN_MOTION_DOT><MEAN_MOTION_DDOT>0</MEAN_MOTION_DDOT></tleParameters></data></segment></body></omm>
<omm id="CCSDS_OMM_VERS" version="2.0">
<header><CREATION_DATE/><ORIGINATOR/></header><body><segment><metadata><OBJECT_NAME>ORBCOMM FM18</OBJECT_NAME><OBJECT_ID>1998-046B</OBJECT_ID><CENTER_NAME>EARTH</CENTER_NAME><REF_FRAME>TEME</REF_FRAME><TIME_SYSTEM>UTC</TIME_SYSTEM><MEAN_ELEMENT_THEORY>SGP4</MEAN_ELEMENT_THEORY></metadata><data><meanElements><EPOCH>2025-04-19T04:16:54.381216</EPOCH><MEAN_MOTION>14.38364472</MEAN_MOTION><ECCENTRICITY>.0006297</ECCENTRICITY><INCLINATION>44.9913</INCLINATION><RA_OF_ASC_NODE>95.0354</RA_OF_ASC_NODE><ARG_OF_PERICENTER>329.2000</ARG_OF_PERICENTER><MEAN_ANOMALY>30.8478</MEAN_ANOMALY></meanElements><tleParameters><EPHEMERIS_TYPE>0</EPHEMERIS_TYPE><CLASSIFICATION_TYPE>U</CLASSIFICATION_TYPE><NORAD_CAT_ID>25414</NORAD_CAT_ID><ELEMENT_SET_NO>999</ELEMENT_SET_NO><REV_AT_EPOCH>39592</REV_AT_EPOCH><BSTAR>.73214E-3</BSTAR><MEAN_MOTION_DOT>.211E-4</MEAN_MOTION_DOT><MEAN_MOTION_DDOT>0</MEAN_MOTION_DDOT></tleParameters></data></segment></body></omm>
<omm id="CCSDS_OMM_VERS" version="2.0">
<header><CREATION_DATE/><ORIGINATOR/></header><body><segment><metadata><OBJECT_NAME>ORBCOMM FM19</OBJECT_NAME><OBJECT_ID>1998-046C</OBJECT_ID><CENTER_NAME>EARTH</CENTER_NAME><REF_FRAME>TEME</REF_FRAME><TIME_SYSTEM>UTC</TIME_SYSTEM><MEAN_ELEMENT_THEORY>SGP4</MEAN_ELEMENT_THEORY></metadata><data><meanElements><EPOCH>2025-04-19T03:14:35.377152</EPOCH><MEAN_MOTION>14.38170439</MEAN_MOTION><ECCENTRICITY>.0005287</ECCENTRICITY><INCLINATION>44.9923</INCLINATION><RA_OF_ASC_NODE>97.1471</RA_OF_ASC_NODE><ARG_OF_PERICENTER>320.8269</ARG_OF_PERICENTER><MEAN_ANOMALY>131.5728</MEAN_ANOMALY></meanElements><tleParameters><EPHEMERIS_TYPE>0</EPHEMERIS_TYPE><CLASSIFICATION_TYPE>U</CLASSIFICATION_TYPE><NORAD_CAT_ID>25415</NORAD_CAT_ID><ELEMENT_SET_NO>999</ELEMENT_SET_NO><REV_AT_EPOCH>39590</REV_AT_EPOCH><BSTAR>.70412E-3</BSTAR><MEAN_MOTION_DOT>.2015E-4</MEAN_MOTION_DOT><MEAN_MOTION_DDOT>0</MEAN_MOTION_DDOT></tleParameters></data></segment></body></omm>

</ndm>
