ORBCOMM FM05            
1 25117U 97084F   25108.86323837  .00002550  00000+0  75356-3 0  9990
2 25117  45.0145 292.8496 0001934 253.2379 106.8261 14.45707135432960
ORBCOMM FM06            
1 25118U 97084G   25108.88751936  .00002511  00000+0  74073-3 0  9990
2 25118  45.0138 292.5353 0001027 234.7459 265.6866 14.45846583432964
ORBCOMM FM07            
1 25119U 97084H   25108.87364817  .00002538  00000+0  74856-3 0  9996
2 25119  45.0134 293.3693 0002751 252.7238 107.3313 14.45823908432951
ORBCOMM FM03            
1 25158U 98007B   25109.19649275  .00002030  00000+0  75897-3 0  9998
2 25158 107.9643  14.4399 0046095 350.3919   9.6335 14.34327321415722
ORBCOMM FM04            
1 25159U 98007C   25108.49373497  .00001939  00000+0  72488-3 0  9991
2 25159 107.9628  16.1766 0041899 348.9308  11.0906 14.34579669415775
ORBCOMM FM17            
1 25413U 98046A   25109.22399726  .00001319  00000+0  50829-3 0  9999
2 25413  44.9934 175.8574 0004630 263.1464  96.8856 14.34965436394874
ORBCOMM FM18            
1 25414U 98046B   25109.17840719  .00002110  00000+0  73214-3 0  9990
2 25414  44.9913  95.0354 0006297 329.2000  30.8478 14.38364472395924
ORBCOMM FM19            
1 25415U 98046C   25109.13513168  .00002015  00000+0  70412-3 0  9993
2 25415  44.9923  97.1471 0005287 320.8269 131.5728 14.38170439395904
